[{"OBJECT_NAME":"VSP ROSE","OBJECT_ID":"2024-043AC","EPOCH":"2026-03-09T21:48:06.922944","MEAN_MOTION":15.27746075,"ECCENTRICITY":0.00099339,"INCLINATION":97.5443,"RA_OF_ASC_NODE":203.927,"ARG_OF_PERICENTER":232.2702,"MEAN_ANOMALY":127.7637,"EPHEMERIS_TYPE":0,"CLASSIFICATION_TYPE":"U","NORAD_CAT_ID":59124,"ELEMENT_SET_NO":999,"REV_AT_EPOCH":11182,"BSTAR":0.00025731354,"MEAN_MOTION_DOT":6.907e-5,"MEAN_MOTION_DDOT":0},{"OBJECT_NAME":"STARLINK-31834","OBJECT_ID":"2024-088P","EPOCH":"2026-03-09T12:29:56.985216","MEAN_MOTION":15.30195923,"ECCENTRICITY":0.00012373,"INCLINATION":53.1618,"RA_OF_ASC_NODE":140.8837,"ARG_OF_PERICENTER":89.8283,"MEAN_ANOMALY":270.2859,"EPHEMERIS_TYPE":0,"CLASSIFICATION_TYPE":"U","NORAD_CAT_ID":59721,"ELEMENT_SET_NO":999,"REV_AT_EPOCH":10383,"BSTAR":6.7193706e-5,"MEAN_MOTION_DOT":1.631e-5,"MEAN_MOTION_DDOT":0}]
